CCSDS_OMM_VERS = 2.0
CREATION_DATE  = 
ORIGINATOR     = 

OBJECT_NAME    = SL-3 R/B
OBJECT_ID      = 1982-079B
CENTER_NAME    = EARTH
REF_FRAME      = TEME
TIME_SYSTEM    = UTC
MEAN_ELEMENT_THEORY = SGP/SGP4

EPOCH          = 2026-03-02T02:52:38.481312
MEAN_MOTION    = 15.24661057
ECCENTRICITY   = .0024782
INCLINATION    = 81.1467
RA_OF_ASC_NODE = 202.0133
ARG_OF_PERICENTER = 190.2833
MEAN_ANOMALY   = 169.7897

EPHEMERIS_TYPE = 0
CLASSIFICATION_TYPE = U
NORAD_CAT_ID   = 13403
ELEMENT_SET_NO = 999
REV_AT_EPOCH   = 37654
BSTAR          = .34313E-3
MEAN_MOTION_DOT = .8576E-4
MEAN_MOTION_DDOT = 0

CCSDS_OMM_VERS = 2.0
CREATION_DATE  = 
ORIGINATOR     = 

OBJECT_NAME    = SL-14 R/B
OBJECT_ID      = 1982-092B
CENTER_NAME    = EARTH
REF_FRAME      = TEME
TIME_SYSTEM    = UTC
MEAN_ELEMENT_THEORY = SGP/SGP4

EPOCH          = 2026-03-01T18:43:33.221568
MEAN_MOTION    = 14.86656828
ECCENTRICITY   = .00195207
INCLINATION    = 82.5705
RA_OF_ASC_NODE = 148.7961
ARG_OF_PERICENTER = 331.3039
MEAN_ANOMALY   = 151.7318

EPHEMERIS_TYPE = 0
CLASSIFICATION_TYPE = U
NORAD_CAT_ID   = 13553
ELEMENT_SET_NO = 999
REV_AT_EPOCH   = 32775
BSTAR          = .59696406E-4
MEAN_MOTION_DOT = .556E-5
MEAN_MOTION_DDOT = 0

CCSDS_OMM_VERS = 2.0
CREATION_DATE  = 
ORIGINATOR     = 

OBJECT_NAME    = SL-3 R/B
OBJECT_ID      = 1983-010B
CENTER_NAME    = EARTH
REF_FRAME      = TEME
TIME_SYSTEM    = UTC
MEAN_ELEMENT_THEORY = SGP/SGP4

EPOCH          = 2026-03-02T02:59:21.583104
MEAN_MOTION    = 15.46029554
ECCENTRICITY   = .0018536
INCLINATION    = 81.1053
RA_OF_ASC_NODE = 11.5179
ARG_OF_PERICENTER = 74.9162
MEAN_ANOMALY   = 285.4132

EPHEMERIS_TYPE = 0
CLASSIFICATION_TYPE = U
NORAD_CAT_ID   = 13819
ELEMENT_SET_NO = 999
REV_AT_EPOCH   = 35677
BSTAR          = .40523E-3
MEAN_MOTION_DOT = .19967E-3
MEAN_MOTION_DDOT = 0

CCSDS_OMM_VERS = 2.0
CREATION_DATE  = 
ORIGINATOR     = 

OBJECT_NAME    = SL-3 R/B
OBJECT_ID      = 1983-075B
CENTER_NAME    = EARTH
REF_FRAME      = TEME
TIME_SYSTEM    = UTC
MEAN_ELEMENT_THEORY = SGP/SGP4

EPOCH          = 2026-03-02T03:23:42.485280
MEAN_MOTION    = 15.38196717
ECCENTRICITY   = .0019665
INCLINATION    = 97.6131
RA_OF_ASC_NODE = 65.4341
ARG_OF_PERICENTER = 255.4771
MEAN_ANOMALY   = 104.4292

EPHEMERIS_TYPE = 0
CLASSIFICATION_TYPE = U
NORAD_CAT_ID   = 14208
ELEMENT_SET_NO = 999
REV_AT_EPOCH   = 32899
BSTAR          = .34668E-3
MEAN_MOTION_DOT = .13045E-3
MEAN_MOTION_DDOT = 0

CCSDS_OMM_VERS = 2.0
CREATION_DATE  = 
ORIGINATOR     = 

OBJECT_NAME    = COSMOS 1536
OBJECT_ID      = 1984-013A
CENTER_NAME    = EARTH
REF_FRAME      = TEME
TIME_SYSTEM    = UTC
MEAN_ELEMENT_THEORY = SGP/SGP4

EPOCH          = 2026-03-02T04:01:55.532640
MEAN_MOTION    = 15.23707662
ECCENTRICITY   = .0012863
INCLINATION    = 82.5441
RA_OF_ASC_NODE = 115.3274
ARG_OF_PERICENTER = 313.1868
MEAN_ANOMALY   = 46.8294

EPHEMERIS_TYPE = 0
CLASSIFICATION_TYPE = U
NORAD_CAT_ID   = 14699
ELEMENT_SET_NO = 999
REV_AT_EPOCH   = 27147
BSTAR          = .30547E-3
MEAN_MOTION_DOT = .7381E-4
MEAN_MOTION_DDOT = 0

CCSDS_OMM_VERS = 2.0
CREATION_DATE  = 
ORIGINATOR     = 

OBJECT_NAME    = SL-14 R/B
OBJECT_ID      = 1984-027B
CENTER_NAME    = EARTH
REF_FRAME      = TEME
TIME_SYSTEM    = UTC
MEAN_ELEMENT_THEORY = SGP/SGP4

EPOCH          = 2026-03-02T00:23:59.590752
MEAN_MOTION    = 14.85966802
ECCENTRICITY   = .0018032
INCLINATION    = 82.5381
RA_OF_ASC_NODE = 252.2111
ARG_OF_PERICENTER = 3.8894
MEAN_ANOMALY   = 356.2459

EPHEMERIS_TYPE = 0
CLASSIFICATION_TYPE = U
NORAD_CAT_ID   = 14820
ELEMENT_SET_NO = 999
REV_AT_EPOCH   = 24649
BSTAR          = .60106E-4
MEAN_MOTION_DOT = .55E-5
MEAN_MOTION_DDOT = 0

CCSDS_OMM_VERS = 2.0
CREATION_DATE  = 
ORIGINATOR     = 

OBJECT_NAME    = SL-8 R/B
OBJECT_ID      = 1985-006B
CENTER_NAME    = EARTH
REF_FRAME      = TEME
TIME_SYSTEM    = UTC
MEAN_ELEMENT_THEORY = SGP/SGP4

EPOCH          = 2026-03-02T02:02:05.177760
MEAN_MOTION    = 14.37777507
ECCENTRICITY   = .001876
INCLINATION    = 74.0434
RA_OF_ASC_NODE = 275.1433
ARG_OF_PERICENTER = 194.6412
MEAN_ANOMALY   = 283.4095

EPHEMERIS_TYPE = 0
CLASSIFICATION_TYPE = U
NORAD_CAT_ID   = 15483
ELEMENT_SET_NO = 999
REV_AT_EPOCH   = 15293
BSTAR          = .69651E-4
MEAN_MOTION_DOT = .184E-5
MEAN_MOTION_DDOT = 0

CCSDS_OMM_VERS = 2.0
CREATION_DATE  = 
ORIGINATOR     = 

OBJECT_NAME    = SL-12 R/B(2)
OBJECT_ID      = 1985-042D
CENTER_NAME    = EARTH
REF_FRAME      = TEME
TIME_SYSTEM    = UTC
MEAN_ELEMENT_THEORY = SGP/SGP4

EPOCH          = 2026-03-02T03:59:35.650176
MEAN_MOTION    = 14.21980032
ECCENTRICITY   = .0033587
INCLINATION    = 71.1065
RA_OF_ASC_NODE = 103.6247
ARG_OF_PERICENTER = 140.4487
MEAN_ANOMALY   = 276.6187

EPHEMERIS_TYPE = 0
CLASSIFICATION_TYPE = U
NORAD_CAT_ID   = 15772
ELEMENT_SET_NO = 999
REV_AT_EPOCH   = 11332
BSTAR          = .89937E-4
MEAN_MOTION_DOT = .152E-5
MEAN_MOTION_DDOT = 0

CCSDS_OMM_VERS = 2.0
CREATION_DATE  = 
ORIGINATOR     = 

OBJECT_NAME    = SL-14 R/B
OBJECT_ID      = 1985-069B
CENTER_NAME    = EARTH
REF_FRAME      = TEME
TIME_SYSTEM    = UTC
MEAN_ELEMENT_THEORY = SGP/SGP4

EPOCH          = 2026-03-02T00:05:25.453248
MEAN_MOTION    = 14.86422171
ECCENTRICITY   = .0017809
INCLINATION    = 82.5268
RA_OF_ASC_NODE = 32.1598
ARG_OF_PERICENTER = 213.9208
MEAN_ANOMALY   = 146.0871

EPHEMERIS_TYPE = 0
CLASSIFICATION_TYPE = U
NORAD_CAT_ID   = 15945
ELEMENT_SET_NO = 999
REV_AT_EPOCH   = 17169
BSTAR          = .67958E-4
MEAN_MOTION_DOT = .626E-5
MEAN_MOTION_DDOT = 0

CCSDS_OMM_VERS = 2.0
CREATION_DATE  = 
ORIGINATOR     = 

OBJECT_NAME    = SL-16 R/B
OBJECT_ID      = 1985-097B
CENTER_NAME    = EARTH
REF_FRAME      = TEME
TIME_SYSTEM    = UTC
MEAN_ELEMENT_THEORY = SGP/SGP4

EPOCH          = 2026-03-02T00:42:09.423936
MEAN_MOTION    = 14.16599306
ECCENTRICITY   = .0009879
INCLINATION    = 71.0037
RA_OF_ASC_NODE = 156.6804
ARG_OF_PERICENTER = 268.6846
MEAN_ANOMALY   = 264.0909

EPHEMERIS_TYPE = 0
CLASSIFICATION_TYPE = U
NORAD_CAT_ID   = 16182
ELEMENT_SET_NO = 999
REV_AT_EPOCH   = 8614
BSTAR          = .48039E-4
MEAN_MOTION_DOT = .48E-6
MEAN_MOTION_DDOT = 0

CCSDS_OMM_VERS = 2.0
CREATION_DATE  = 
ORIGINATOR     = 

OBJECT_NAME    = SL-14 R/B
OBJECT_ID      = 1986-006B
CENTER_NAME    = EARTH
REF_FRAME      = TEME
TIME_SYSTEM    = UTC
MEAN_ELEMENT_THEORY = SGP/SGP4

EPOCH          = 2026-03-02T01:12:11.435904
MEAN_MOTION    = 14.86802890
ECCENTRICITY   = .0075238
INCLINATION    = 82.5235
RA_OF_ASC_NODE = 266.9292
ARG_OF_PERICENTER = 298.6348
MEAN_ANOMALY   = 60.7315

EPHEMERIS_TYPE = 0
CLASSIFICATION_TYPE = U
NORAD_CAT_ID   = 16496
ELEMENT_SET_NO = 999
REV_AT_EPOCH   = 14807
BSTAR          = .69526E-4
MEAN_MOTION_DOT = .677E-5
MEAN_MOTION_DDOT = 0

CCSDS_OMM_VERS = 2.0
CREATION_DATE  = 
ORIGINATOR     = 

OBJECT_NAME    = COSMOS 1743
OBJECT_ID      = 1986-034A
CENTER_NAME    = EARTH
REF_FRAME      = TEME
TIME_SYSTEM    = UTC
MEAN_ELEMENT_THEORY = SGP/SGP4

EPOCH          = 2026-03-02T01:32:44.145312
MEAN_MOTION    = 15.57926914
ECCENTRICITY   = .000246
INCLINATION    = 82.5297
RA_OF_ASC_NODE = 81.8309
ARG_OF_PERICENTER = 343.6997
MEAN_ANOMALY   = 16.4179

EPHEMERIS_TYPE = 0
CLASSIFICATION_TYPE = U
NORAD_CAT_ID   = 16719
ELEMENT_SET_NO = 999
REV_AT_EPOCH   = 17906
BSTAR          = .50053E-3
MEAN_MOTION_DOT = .37525E-3
MEAN_MOTION_DDOT = 0

