SL-3 R/B                
1 13403U 82079B   26061.11988983  .00008576  00000+0  34313-3 0  9991
2 13403  81.1467 202.0133 0024782 190.2833 169.7897 15.24661057376549
SL-14 R/B               
1 13553U 82092B   26060.78024562  .00000556  00000+0  59696-4 0  9990
2 13553  82.5705 148.7961 0019520 331.3039 151.7318 14.86656828327755
SL-3 R/B                
1 13819U 83010B   26061.12455536  .00019967  00000+0  40523-3 0  9998
2 13819  81.1053  11.5179 0018536  74.9162 285.4132 15.46029554356772
SL-3 R/B                
1 14208U 83075B   26061.14146395  .00013045  00000+0  34668-3 0  9998
2 14208  97.6131  65.4341 0019665 255.4771 104.4292 15.38196717328996
COSMOS 1536             
1 14699U 84013A   26061.16800385  .00007381  00000+0  30547-3 0  9991
2 14699  82.5441 115.3274 0012863 313.1868  46.8294 15.23707662271471
SL-14 R/B               
1 14820U 84027B   26061.01666193  .00000550  00000+0  60106-4 0  9999
2 14820  82.5381 252.2111 0018032   3.8894 356.2459 14.85966802246492
SL-8 R/B                
1 15483U 85006B   26061.08478215  .00000184  00000+0  69651-4 0  9993
2 15483  74.0434 275.1433 0018760 194.6412 283.4095 14.37777507152938
SL-12 R/B(2)            
1 15772U 85042D   26061.16638484  .00000152  00000+0  89937-4 0  9993
2 15772  71.1065 103.6247 0033587 140.4487 276.6187 14.21980032113328
SL-14 R/B               
1 15945U 85069B   26061.00376682  .00000626  00000+0  67958-4 0  9991
2 15945  82.5268  32.1598 0017809 213.9208 146.0871 14.86422171171692
SL-16 R/B               
1 16182U 85097B   26061.02927574  .00000048  00000+0  48039-4 0  9997
2 16182  71.0037 156.6804 0009879 268.6846 264.0909 14.16599306 86144
SL-14 R/B               
1 16496U 86006B   26061.05013236  .00000677  00000+0  69526-4 0  9992
2 16496  82.5235 266.9292 0075238 298.6348  60.7315 14.86802890148072
COSMOS 1743             
1 16719U 86034A   26061.06439983  .00037525  00000+0  50053-3 0  9999
2 16719  82.5297  81.8309 0002460 343.6997  16.4179 15.57926914179061
